STARLINK-2541
1 28313C 21036AP  21325.12291998  .00000636  00000-0  42627-4 0  3258
2 28313  53.0522 297.6890 0001703  54.7560 355.9395 15.06393291    16
